{"type": "FeatureCollection", "features": [ {"type": "Feature", "properties": {"norad_id": 30858, "name": "FENGYUN 1C DEB", "group": "fengyun-1c-debris", "lat": -64.92301233826413, "lon": 55.495193314836904, "alt_km": 861.1162020040638, "timestamp": "2025-12-04T10:51:50.384584+00:00", "meta": {"OBJECT_NAME": "FENGYUN 1C DEB", "OBJECT_ID": "1999-025AWU", "EPOCH": "2025-12-03T21:53:29.518080", "MEAN_MOTION": 14.17759508, "ECCENTRICITY": 0.0030821, "INCLINATION": 98.8003, "RA_OF_ASC_NODE": 35.6274, "ARG_OF_PERICENTER": 134.2969, "MEAN_ANOMALY": 281.9834, "EPHEMERIS_TYPE": 0, "CLASSIFICATION_TYPE": "U", "NORAD_CAT_ID": 30858, "ELEMENT_SET_NO": 999, "REV_AT_EPOCH": 96855, "BSTAR": 0.00068201, "MEAN_MOTION_DOT": 1.353e-05, "MEAN_MOTION_DDOT": 0}, "tle": {"line1": "1 30858U 99025AWU 25337.91214720  .00001353  00000+0  68201-3 0  9996", "line2": "2 30858  98.8003  35.6274 0030821 134.2969 281.9834 14.17759508968554"}}, "geometry": {"type": "Point", "coordinates": [55.495193314836904, -64.92301233826413]}}, {"type": "Feature", "properties": {"norad_id": 30859, "name": "FENGYUN 1C DEB", "group": "fengyun-1c-debris", "lat": 16.56976534735422, "lon": -149.21445046387794, "alt_km": 736.4567054973859, "timestamp": "2025-12-04T10:51:50.384594+00:00", "meta": {"OBJECT_NAME": "FENGYUN 1C DEB", "OBJECT_ID": "1999-025AWV", "EPOCH": "2025-12-04T03:29:11.512896", "MEAN_MOTION": 14.48781651, "ECCENTRICITY": 0.0031688, "INCLINATION": 98.9222, "RA_OF_ASC_NODE": 27.7818, "ARG_OF_PERICENTER": 57.5755, "MEAN_ANOMALY": 302.8495, "EPHEMERIS_TYPE": 0, "CLASSIFICATION_TYPE": "U", "NORAD_CAT_ID": 30859, "ELEMENT_SET_NO": 999, "REV_AT_EPOCH": 96910, "BSTAR": 0.0068215, "MEAN_MOTION_DOT": 0.00025962, "MEAN_MOTION_DDOT": 0}, "tle": {"line1": "1 30859U 99025AWV 25338.14527214  .00025962  00000+0  68215-2 0  9994", "line2": "2 30859  98.9222  27.7818 0031688  57.5755 302.8495 14.48781651969103"}}, "geometry": {"type": "Point", "coordinates": [-149.21445046387794, 16.56976534735422]}}, {"type": "Feature", "properties": {"norad_id": 30860, "name": "FENGYUN 1C DEB", "group": "fengyun-1c-debris", "lat": -2.676986043100791, "lon": 52.20624990348346, "alt_km": 834.4625140590733, "timestamp": "2025-12-04T10:51:50.384604+00:00", "meta": {"OBJECT_NAME": "FENGYUN 1C DEB", "OBJECT_ID": "1999-025AWW", "EPOCH": "2025-12-04T04:08:16.649088", "MEAN_MOTION": 14.25391028, "ECCENTRICITY": 0.0039944, "INCLINATION": 98.9063, "RA_OF_ASC_NODE": 51.5017, "ARG_OF_PERICENTER": 211.2114, "MEAN_ANOMALY": 148.6693, "EPHEMERIS_TYPE": 0, "CLASSIFICATION_TYPE": "U", "NORAD_CAT_ID": 30860, "ELEMENT_SET_NO": 999, "REV_AT_EPOCH": 96394, "BSTAR": 0.0035835, "MEAN_MOTION_DOT": 8.485e-05, "MEAN_MOTION_DDOT": 0}, "tle": {"line1": "1 30860U 99025AWW 25338.17241492  .00008485  00000+0  35835-2 0  9993", "line2": "2 30860  98.9063  51.5017 0039944 211.2114 148.6693 14.25391028963947"}}, "geometry": {"type": "Point", "coordinates": [52.20624990348346, -2.676986043100791]}}, {"type": "Feature", "properties": {"norad_id": 30862, "name": "FENGYUN 1C DEB", "group": "fengyun-1c-debris", "lat": -2.9429032825450947, "lon": 69.25922968793495, "alt_km": 790.6926739014243, "timestamp": "2025-12-04T10:51:50.384614+00:00", "meta": {"OBJECT_NAME": "FENGYUN 1C DEB", "OBJECT_ID": "1999-025AWY", "EPOCH": "2025-12-03T05:03:23.950368", "MEAN_MOTION": 14.42697915, "ECCENTRICITY": 0.00538995, "INCLINATION": 98.9598, "RA_OF_ASC_NODE": 67.4901, "ARG_OF_PERICENTER": 189.9681, "MEAN_ANOMALY": 200.2162, "EPHEMERIS_TYPE": 0, "CLASSIFICATION_TYPE": "U", "NORAD_CAT_ID": 30862, "ELEMENT_SET_NO": 999, "REV_AT_EPOCH": 96582, "BSTAR": 0.0049360153, "MEAN_MOTION_DOT": 0.00016707, "MEAN_MOTION_DDOT": 0}, "tle": {"line1": "1 30862U 99025AWY 25337.21069387  .00016707  00000+0  49360-2 0  9994", "line2": "2 30862  98.9598  67.4901 0053899 189.9681 200.2162 14.42697915965823"}}, "geometry": {"type": "Point", "coordinates": [69.25922968793495, -2.9429032825450947]}}, {"type": "Feature", "properties": {"norad_id": 30863, "name": "FENGYUN 1C DEB", "group": "fengyun-1c-debris", "lat": 10.670551788979289, "lon": -6.79484377637018, "alt_km": 1550.921031127069, "timestamp": "2025-12-04T10:51:50.384624+00:00", "meta": {"OBJECT_NAME": "FENGYUN 1C DEB", "OBJECT_ID": "1999-025AWZ", "EPOCH": "2025-12-01T19:58:05.361600", "MEAN_MOTION": 12.4043832, "ECCENTRICITY": 0.08789042, "INCLINATION": 99.121, "RA_OF_ASC_NODE": 169.4702, "ARG_OF_PERICENTER": 273.3504, "MEAN_ANOMALY": 88.4954, "EPHEMERIS_TYPE": 0, "CLASSIFICATION_TYPE": "U", "NORAD_CAT_ID": 30863, "ELEMENT_SET_NO": 999, "REV_AT_EPOCH": 59605, "BSTAR": 0.0034163512, "MEAN_MOTION_DOT": 1.767e-05, "MEAN_MOTION_DDOT": 0}, "tle": {"line1": "1 30863U 99025AWZ 25335.83200650  .00001767  00000+0  34164-2 0  9997", "line2": "2 30863  99.1210 169.4702 0878904 273.3504  88.4954 12.40438320596053"}}, "geometry": {"type": "Point", "coordinates": [-6.79484377637018, 10.670551788979289]}}, {"type": "Feature", "properties": {"norad_id": 30867, "name": "FENGYUN 1C DEB", "group": "fengyun-1c-debris", "lat": -11.379743763468582, "lon": -112.30902914196037, "alt_km": 769.2889997898747, "timestamp": "2025-12-04T10:51:50.384635+00:00", "meta": {"OBJECT_NAME": "FENGYUN 1C DEB", "OBJECT_ID": "1999-025AXD", "EPOCH": "2025-12-03T05:21:09.982944", "MEAN_MOTION": 14.27801601, "ECCENTRICITY": 0.0054785, "INCLINATION": 97.8769, "RA_OF_ASC_NODE": 244.9851, "ARG_OF_PERICENTER": 22.51, "MEAN_ANOMALY": 129.6321, "EPHEMERIS_TYPE": 0, "CLASSIFICATION_TYPE": "U", "NORAD_CAT_ID": 30867, "ELEMENT_SET_NO": 999, "REV_AT_EPOCH": 96401, "BSTAR": 0.0034672, "MEAN_MOTION_DOT": 8.678e-05, "MEAN_MOTION_DDOT": 0}, "tle": {"line1": "1 30867U 99025AXD 25337.22303221  .00008678  00000+0  34672-2 0  9996", "line2": "2 30867  97.8769 244.9851 0054785  22.5100 129.6321 14.27801601964018"}}, "geometry": {"type": "Point", "coordinates": [-112.30902914196037, -11.379743763468582]}}, {"type": "Feature", "properties": {"norad_id": 30868, "name": "FENGYUN 1C DEB", "group": "fengyun-1c-debris", "lat": -33.13420598606045, "lon": -137.4147005705072, "alt_km": 859.6491573587946, "timestamp": "2025-12-04T10:51:50.384645+00:00", "meta": {"OBJECT_NAME": "FENGYUN 1C DEB", "OBJECT_ID": "1999-025AXE", "EPOCH": "2025-12-03T03:25:48.644832", "MEAN_MOTION": 14.1111144, "ECCENTRICITY": 0.01348387, "INCLINATION": 98.264, "RA_OF_ASC_NODE": 215.9357, "ARG_OF_PERICENTER": 240.752, "MEAN_ANOMALY": 274.5498, "EPHEMERIS_TYPE": 0, "CLASSIFICATION_TYPE": "U", "NORAD_CAT_ID": 30868, "ELEMENT_SET_NO": 999, "REV_AT_EPOCH": 96575, "BSTAR": 0.00020250959, "MEAN_MOTION_DOT": 3.57e-06, "MEAN_MOTION_DDOT": 0}, "tle": {"line1": "1 30868U 99025AXE 25337.14292413  .00000357  00000+0  20251-3 0  9993", "line2": "2 30868  98.2640 215.9357 0134838 240.7520 274.5498 14.11111440965754"}}, "geometry": {"type": "Point", "coordinates": [-137.4147005705072, -33.13420598606045]}}, {"type": "Feature", "properties": {"norad_id": 30872, "name": "FENGYUN 1C DEB", "group": "fengyun-1c-debris", "lat": 9.691888630522447, "lon": 28.641952816768676, "alt_km": 740.665542383601, "timestamp": "2025-12-04T10:51:50.384655+00:00", "meta": {"OBJECT_NAME": "FENGYUN 1C DEB", "OBJECT_ID": "1999-025AXJ", "EPOCH": "2025-12-01T02:52:00.052320", "MEAN_MOTION": 14.39326682, "ECCENTRICITY": 0.0041385, "INCLINATION": 99.1951, "RA_OF_ASC_NODE": 26.6549, "ARG_OF_PERICENTER": 62.9558, "MEAN_ANOMALY": 325.6114, "EPHEMERIS_TYPE": 0, "CLASSIFICATION_TYPE": "U", "NORAD_CAT_ID": 30872, "ELEMENT_SET_NO": 999, "REV_AT_EPOCH": 97569, "BSTAR": 0.0009159011, "MEAN_MOTION_DOT": 2.825e-05, "MEAN_MOTION_DDOT": 0}, "tle": {"line1": "1 30872U 99025AXJ 25335.11944505  .00002825  00000+0  91590-3 0  9995", "line2": "2 30872  99.1951  26.6549 0041385  62.9558 325.6114 14.39326682975696"}}, "geometry": {"type": "Point", "coordinates": [28.641952816768676, 9.691888630522447]}}, {"type": "Feature", "properties": {"norad_id": 30873, "name": "FENGYUN 1C DEB", "group": "fengyun-1c-debris", "lat": 0.6293104631126349, "lon": 159.0878901423217, "alt_km": 884.4963314654133, "timestamp": "2025-12-04T10:51:50.384666+00:00", "meta": {"OBJECT_NAME": "FENGYUN 1C DEB", "OBJECT_ID": "1999-025AXK", "EPOCH": "2025-12-02T19:05:40.608960", "MEAN_MOTION": 14.19120964, "ECCENTRICITY": 0.01080899, "INCLINATION": 98.6116, "RA_OF_ASC_NODE": 337.3821, "ARG_OF_PERICENTER": 317.6858, "MEAN_ANOMALY": 41.6016, "EPHEMERIS_TYPE": 0, "CLASSIFICATION_TYPE": "U", "NORAD_CAT_ID": 30873, "ELEMENT_SET_NO": 999, "REV_AT_EPOCH": 97051, "BSTAR": 0.00029970349, "MEAN_MOTION_DOT": 6.21e-06, "MEAN_MOTION_DDOT": 0}, "tle": {"line1": "1 30873U 99025AXK 25336.79560890  .00000621  00000+0  29970-3 0  9997", "line2": "2 30873  98.6116 337.3821 0108089 317.6858  41.6016 14.19120964970512"}}, "geometry": {"type": "Point", "coordinates": [159.0878901423217, 0.6293104631126349]}}, {"type": "Feature", "properties": {"norad_id": 30874, "name": "FENGYUN 1C DEB", "group": "fengyun-1c-debris", "lat": 77.93188295688587, "lon": -34.92312309170606, "alt_km": 790.0774788768431, "timestamp": "2025-12-04T10:51:50.384676+00:00", "meta": {"OBJECT_NAME": "FENGYUN 1C DEB", "OBJECT_ID": "1999-025AXL", "EPOCH": "2025-12-03T00:47:49.890048", "MEAN_MOTION": 14.19619901, "ECCENTRICITY": 0.00424445, "INCLINATION": 98.4915, "RA_OF_ASC_NODE": 8.0432, "ARG_OF_PERICENTER": 68.3697, "MEAN_ANOMALY": 322.7179, "EPHEMERIS_TYPE": 0, "CLASSIFICATION_TYPE": "U", "NORAD_CAT_ID": 30874, "ELEMENT_SET_NO": 999, "REV_AT_EPOCH": 96883, "BSTAR": 0.00057497792, "MEAN_MOTION_DOT": 1.184e-05, "MEAN_MOTION_DDOT": 0}, "tle": {"line1": "1 30874U 99025AXL 25337.03321632  .00001184  00000+0  57498-3 0  9996", "line2": "2 30874  98.4915   8.0432 0042444  68.3697 322.7179 14.19619901968830"}}, "geometry": {"type": "Point", "coordinates": [-34.92312309170606, 77.93188295688587]}}]}